0 SL-12 R/B(2)
1 20836U 74060F   13281.51129064 -.00000385  00000-0  10000-3 0  4489
2 20836 011.1802 321.6811 0019603 089.5841 270.5924 01.00255546 76785
0 SL-12 R/B(2)
1 20836U 74060F   13283.50616707  .00000000  00000-0  10000-3 0  4501
2 20836 011.1780 321.6655 0018952 089.4325 270.7535 01.00250161 76809
0 SL-12 R/B(2)
1 20836U 74060F   13287.49585181 -.00000403  00000-0  10000-3 0  4502
2 20836 011.1732 321.6248 0019479 089.8250 270.3401 01.00252329 76840
0 SL-12 R/B(2)
1 20836U 74060F   13288.49329180 -.00000404  00000-0  10000-3 0  4510
2 20836 011.1722 321.6160 0019372 089.2122 270.9453 01.00251732 76857
0 SL-12 R/B(2)
1 20836U 74060F   13290.48819324  .00000000  00000-0  10000-3 0  4539
2 20836 011.1700 321.6001 0018938 089.6622 270.4952 01.00246520 76873
0 SL-12 R/B(2)
1 20836U 74060F   13291.48563596 -.00000401  00000-0  10000-3 0  4522
2 20836 011.1687 321.5882 0019445 089.2092 270.9357 01.00250115 76884
0 SL-12 R/B(2)
1 20836U 74060F   13293.48058937 -.00000396  00000-0  10000-3 0  4536
2 20836 011.1659 321.5704 0018927 088.9738 271.1646 01.00249005 76906
